FENGYUN 1C DEB          
1 32179U 99025CTZ 17345.87002582 -.00000070  00000-0 -13867-4 0  9997
2 32179  99.2498 353.8919 0147897 358.1074 120.1574 14.02057711247569
